[{"OBJECT_NAME":"FLOCK 4G-7","OBJECT_ID":"2025-009R","EPOCH":"2026-03-09T19:11:56.638176","MEAN_MOTION":15.27141471,"ECCENTRICITY":0.00013963,"INCLINATION":97.3984,"RA_OF_ASC_NODE":150.827,"ARG_OF_PERICENTER":336.9783,"MEAN_ANOMALY":23.1393,"EPHEMERIS_TYPE":0,"CLASSIFICATION_TYPE":"U","NORAD_CAT_ID":62624,"ELEMENT_SET_NO":999,"REV_AT_EPOCH":6372,"BSTAR":0.0004316781,"MEAN_MOTION_DOT":0.00011422,"MEAN_MOTION_DDOT":0},{"OBJECT_NAME":"STARLINK-36374","OBJECT_ID":"2026-005P","EPOCH":"2026-03-09T11:34:48.874368","MEAN_MOTION":15.27580778,"ECCENTRICITY":6.689e-5,"INCLINATION":42.9945,"RA_OF_ASC_NODE":239.2498,"ARG_OF_PERICENTER":289.971,"MEAN_ANOMALY":70.1069,"EPHEMERIS_TYPE":0,"CLASSIFICATION_TYPE":"U","NORAD_CAT_ID":67417,"ELEMENT_SET_NO":999,"REV_AT_EPOCH":866,"BSTAR":0.0008636409,"MEAN_MOTION_DOT":0.0002358,"MEAN_MOTION_DDOT":0}]
