FLOCK 4G-7              
1 62624U 25009R   26068.79996108  .00011422  00000+0  43168-3 0  9991
2 62624  97.3984 150.8270 0001396 336.9783  23.1393 15.27141471 63725
STARLINK-36374          
1 67417U 26005P   26068.48251012  .00023580  00000+0  86364-3 0  9990
2 67417  42.9945 239.2498 0000668 289.9710  70.1069 15.27580778  8666
